[{"OBJECT_NAME":"OBJECT C","OBJECT_ID":"2024-092C","EPOCH":"2026-03-09T23:10:26.961312","MEAN_MOTION":15.27308901,"ECCENTRICITY":0.00097974,"INCLINATION":97.6475,"RA_OF_ASC_NODE":197.1606,"ARG_OF_PERICENTER":169.1353,"MEAN_ANOMALY":191.0098,"EPHEMERIS_TYPE":0,"CLASSIFICATION_TYPE":"U","NORAD_CAT_ID":59775,"ELEMENT_SET_NO":999,"REV_AT_EPOCH":10042,"BSTAR":0.00057925748,"MEAN_MOTION_DOT":0.00015454,"MEAN_MOTION_DDOT":0},{"OBJECT_NAME":"STARLINK-33869","OBJECT_ID":"2025-091R","EPOCH":"2026-03-09T22:35:43.173888","MEAN_MOTION":15.27610281,"ECCENTRICITY":0.00015733,"INCLINATION":42.9958,"RA_OF_ASC_NODE":50.8469,"ARG_OF_PERICENTER":94.4288,"MEAN_ANOMALY":265.6744,"EPHEMERIS_TYPE":0,"CLASSIFICATION_TYPE":"U","NORAD_CAT_ID":63790,"ELEMENT_SET_NO":999,"REV_AT_EPOCH":4889,"BSTAR":0.00094604111,"MEAN_MOTION_DOT":0.00025887,"MEAN_MOTION_DDOT":0}]
